{
  "type": "FeatureCollection",
  "features": [
    {
      "type": "Feature",
      "properties": {
        "norad_id": 31025,
        "name": "FENGYUN 1C DEB",
        "group": "fengyun-1c-debris",
        "lat": 73.08129213844629,
        "lon": -39.08368717098221,
        "alt_km": 843.3648804151908,
        "timestamp": "2025-12-26T21:25:53.290446+00:00",
        "meta_object_name": "FENGYUN 1C DEB",
        "meta_object_id": "1999-025BDT",
        "meta_epoch": "2025-12-07T05:28:07.771008",
        "meta_mean_motion": 14.20521805,
        "meta_eccentricity": 0.01734931,
        "meta_inclination": 98.58,
        "meta_ra_of_asc_node": 331.5793,
        "meta_arg_of_pericenter": 28.741,
        "meta_mean_anomaly": 332.3194,
        "meta_ephemeris_type": 0,
        "meta_classification_type": "U",
        "meta_norad_cat_id": 31025,
        "meta_element_set_no": 999,
        "meta_rev_at_epoch": 64287,
        "meta_bstar": 0.0012507545,
        "meta_mean_motion_dot": 3.084e-05,
        "meta_mean_motion_ddot": 0,
        "tle_line1": "1 31025U 99025BDT 25341.22786772  .00003084  00000+0  12508-2 0  9994",
        "tle_line2": "2 31025  98.5800 331.5793 0173493  28.7410 332.3194 14.20521805642873"
      },
      "geometry": {
        "type": "Point",
        "coordinates": [
          -39.08368717098221,
          73.08129213844629
        ]
      }
    },
    {
      "type": "Feature",
      "properties": {
        "norad_id": 31026,
        "name": "FENGYUN 1C DEB",
        "group": "fengyun-1c-debris",
        "lat": -15.077541742013869,
        "lon": -62.09778629103728,
        "alt_km": 1048.56040625874,
        "timestamp": "2025-12-26T21:25:53.290459+00:00",
        "meta_object_name": "FENGYUN 1C DEB",
        "meta_object_id": "1999-025BDU",
        "meta_epoch": "2025-12-16T14:07:08.116896",
        "meta_mean_motion": 13.83400412,
        "meta_eccentricity": 0.01344959,
        "meta_inclination": 98.7801,
        "meta_ra_of_asc_node": 285.8947,
        "meta_arg_of_pericenter": 172.0946,
        "meta_mean_anomaly": 1.2766,
        "meta_ephemeris_type": 0,
        "meta_classification_type": "U",
        "meta_norad_cat_id": 31026,
        "meta_element_set_no": 999,
        "meta_rev_at_epoch": 68079,
        "meta_bstar": 0.00014906948,
        "meta_mean_motion_dot": 1.36e-06,
        "meta_mean_motion_ddot": 0,
        "tle_line1": "1 31026U 99025BDU 25350.58828839  .00000136  00000+0  14907-3 0  9996",
        "tle_line2": "2 31026  98.7801 285.8947 0134495 172.0946   1.2766 13.83400412680793"
      },
      "geometry": {
        "type": "Point",
        "coordinates": [
          -62.09778629103728,
          -15.077541742013869
        ]
      }
    },
    {
      "type": "Feature",
      "properties": {
        "norad_id": 31028,
        "name": "FENGYUN 1C DEB",
        "group": "fengyun-1c-debris",
        "lat": -74.03739435942363,
        "lon": -35.78180637567929,
        "alt_km": 832.758696392124,
        "timestamp": "2025-12-26T21:25:53.290469+00:00",
        "meta_object_name": "FENGYUN 1C DEB",
        "meta_object_id": "1999-025BDW",
        "meta_epoch": "2025-12-25T00:50:54.506976",
        "meta_mean_motion": 13.89080834,
        "meta_eccentricity": 0.01641634,
        "meta_inclination": 98.7065,
        "meta_ra_of_asc_node": 290.0897,
        "meta_arg_of_pericenter": 260.5162,
        "meta_mean_anomaly": 97.7411,
        "meta_ephemeris_type": 0,
        "meta_classification_type": "U",
        "meta_norad_cat_id": 31028,
        "meta_element_set_no": 999,
        "meta_rev_at_epoch": 62174,
        "meta_bstar": 0.00025878519,
        "meta_mean_motion_dot": 3.08e-06,
        "meta_mean_motion_ddot": 0,
        "tle_line1": "1 31028U 99025BDW 25359.03535309  .00000308  00000+0  25879-3 0  9995",
        "tle_line2": "2 31028  98.7065 290.0897 0164163 260.5162  97.7411 13.89080834621742"
      },
      "geometry": {
        "type": "Point",
        "coordinates": [
          -35.78180637567929,
          -74.03739435942363
        ]
      }
    },
    {
      "type": "Feature",
      "properties": {
        "norad_id": 31029,
        "name": "FENGYUN 1C DEB",
        "group": "fengyun-1c-debris",
        "lat": -14.168551968251725,
        "lon": -99.59910297674483,
        "alt_km": 737.5592535116612,
        "timestamp": "2025-12-26T21:25:53.290479+00:00",
        "meta_object_name": "FENGYUN 1C DEB",
        "meta_object_id": "1999-025BDX",
        "meta_epoch": "2025-12-26T12:16:28.860096",
        "meta_mean_motion": 14.34350237,
        "meta_eccentricity": 0.00899021,
        "meta_inclination": 98.8584,
        "meta_ra_of_asc_node": 257.7536,
        "meta_arg_of_pericenter": 33.8282,
        "meta_mean_anomaly": 143.7095,
        "meta_ephemeris_type": 0,
        "meta_classification_type": "U",
        "meta_norad_cat_id": 31029,
        "meta_element_set_no": 999,
        "meta_rev_at_epoch": 97993,
        "meta_bstar": 0.00037891499,
        "meta_mean_motion_dot": 1.068e-05,
        "meta_mean_motion_ddot": 0,
        "tle_line1": "1 31029U 99025BDX 25360.51144514  .00001068  00000+0  37891-3 0  9996",
        "tle_line2": "2 31029  98.8584 257.7536 0089902  33.8282 143.7095 14.34350237979936"
      },
      "geometry": {
        "type": "Point",
        "coordinates": [
          -99.59910297674483,
          -14.168551968251725
        ]
      }
    },
    {
      "type": "Feature",
      "properties": {
        "norad_id": 31030,
        "name": "FENGYUN 1C DEB",
        "group": "fengyun-1c-debris",
        "lat": -13.651567910666856,
        "lon": 64.91420056353432,
        "alt_km": 806.7302147264154,
        "timestamp": "2025-12-26T21:25:53.290489+00:00",
        "meta_object_name": "FENGYUN 1C DEB",
        "meta_object_id": "1999-025BDY",
        "meta_epoch": "2025-12-26T03:04:59.043360",
        "meta_mean_motion": 14.23723884,
        "meta_eccentricity": 0.00270514,
        "meta_inclination": 98.7657,
        "meta_ra_of_asc_node": 62.0048,
        "meta_arg_of_pericenter": 45.7714,
        "meta_mean_anomaly": 344.5393,
        "meta_ephemeris_type": 0,
        "meta_classification_type": "U",
        "meta_norad_cat_id": 31030,
        "meta_element_set_no": 999,
        "meta_rev_at_epoch": 96895,
        "meta_bstar": 0.00084198854,
        "meta_mean_motion_dot": 1.886e-05,
        "meta_mean_motion_ddot": 0,
        "tle_line1": "1 31030U 99025BDY 25360.12846115  .00001886  00000+0  84199-3 0  9992",
        "tle_line2": "2 31030  98.7657  62.0048 0027051  45.7714 344.5393 14.23723884968954"
      },
      "geometry": {
        "type": "Point",
        "coordinates": [
          64.91420056353432,
          -13.651567910666856
        ]
      }
    },
    {
      "type": "Feature",
      "properties": {
        "norad_id": 31031,
        "name": "FENGYUN 1C DEB",
        "group": "fengyun-1c-debris",
        "lat": -32.01122172261417,
        "lon": 92.63942247406918,
        "alt_km": 819.9403928187894,
        "timestamp": "2025-12-26T21:25:53.290511+00:00",
        "meta_object_name": "FENGYUN 1C DEB",
        "meta_object_id": "1999-025BDZ",
        "meta_epoch": "2025-12-24T00:55:32.714976",
        "meta_mean_motion": 14.2100357,
        "meta_eccentricity": 0.00282093,
        "meta_inclination": 99.0724,
        "meta_ra_of_asc_node": 275.4423,
        "meta_arg_of_pericenter": 153.5984,
        "meta_mean_anomaly": 224.558,
        "meta_ephemeris_type": 0,
        "meta_classification_type": "U",
        "meta_norad_cat_id": 31031,
        "meta_element_set_no": 999,
        "meta_rev_at_epoch": 97015,
        "meta_bstar": 0.00038521203,
        "meta_mean_motion_dot": 7.92e-06,
        "meta_mean_motion_ddot": 0,
        "tle_line1": "1 31031U 99025BDZ 25358.03857309  .00000792  00000+0  38521-3 0  9990",
        "tle_line2": "2 31031  99.0724 275.4423 0028209 153.5984 224.5580 14.21003570970155"
      },
      "geometry": {
        "type": "Point",
        "coordinates": [
          92.63942247406918,
          -32.01122172261417
        ]
      }
    },
    {
      "type": "Feature",
      "properties": {
        "norad_id": 31032,
        "name": "FENGYUN 1C DEB",
        "group": "fengyun-1c-debris",
        "lat": -3.723989686100179,
        "lon": 10.77651145770578,
        "alt_km": 984.8877106213322,
        "timestamp": "2025-12-26T21:25:53.290522+00:00",
        "meta_object_name": "FENGYUN 1C DEB",
        "meta_object_id": "1999-025BEA",
        "meta_epoch": "2025-12-26T08:22:06.059136",
        "meta_mean_motion": 14.02256316,
        "meta_eccentricity": 0.01392035,
        "meta_inclination": 99.4001,
        "meta_ra_of_asc_node": 9.5975,
        "meta_arg_of_pericenter": 158.9809,
        "meta_mean_anomaly": 331.6929,
        "meta_ephemeris_type": 0,
        "meta_classification_type": "U",
        "meta_norad_cat_id": 31032,
        "meta_element_set_no": 999,
        "meta_rev_at_epoch": 95172,
        "meta_bstar": 0.0014588357,
        "meta_mean_motion_dot": 2.387e-05,
        "meta_mean_motion_ddot": 0,
        "tle_line1": "1 31032U 99025BEA 25360.34868124  .00002387  00000+0  14588-2 0  9993",
        "tle_line2": "2 31032  99.4001   9.5975 0139203 158.9809 331.6929 14.02256316951724"
      },
      "geometry": {
        "type": "Point",
        "coordinates": [
          10.77651145770578,
          -3.723989686100179
        ]
      }
    }
  ]
}